*******************************************************************************
Ephemeris / WWW_USER Mon Mar 10 14:44:29 2025 Pasadena, USA      / Horizons    
*******************************************************************************
Target body name: (2018 RP1)                      {source: JPL#4}
Center body name: Earth (399)                     {source: DE441}
Center-site name: Gemini South Obs., Cerro Pachon
*******************************************************************************
Start time      : A.D. 2018-Sep-29 22:51:00.0000 UT      
Stop  time      : A.D. 2018-Sep-30 10:14:00.0000 UT      
Step-size       : 1 minutes
*******************************************************************************
Target pole/equ : undefined
Target radii    : undefined                                                    
Center geodetic : 289.2634, -30.2406227, 2.71233  {E-lon(deg),Lat(deg),Alt(km)}
Center cylindric: 289.2634,5517.21435,-3194.81213 {E-lon(deg),Dxy(km),Dz(km)}
Center pole/equ : ITRF93                          {East-longitude positive}
Center radii    : 6378.137, 6378.137, 6356.752 km {Equator_a, b, pole_c}       
Target primary  : Sun
Vis. interferer : MOON (R_eq= 1737.400) km        {source: DE441}
Rel. light bend : Sun                             {source: DE441}
Rel. lght bnd GM: 1.3271E+11 km^3/s^2                                          
Small-body perts: Yes                             {source: SB441-N16}
Atmos refraction: NO (AIRLESS)
RA format       : HMS
Time format     : CAL 
Calendar mode   : Mixed Julian/Gregorian
RTS-only print  : NO       
EOP file        : eop.250307.p250603                                           
EOP coverage    : DATA-BASED 1962-JAN-20 TO 2025-MAR-07. PREDICTS-> 2025-JUN-02
Units conversion: 1 au= 149597870.700 km, c= 299792.458 km/s, 1 day= 86400.0 s 
Table cut-offs 1: Elevation (-90.0deg=NO ),Airmass (>38.000=NO), Daylight (YES)
Table cut-offs 2: Solar elongation (  0.0,180.0=NO ),Local Hour Angle( 0.0=NO )
Table cut-offs 3: RA/DEC angular rate (     0.0=NO )                           
*******************************************************************************
Initial IAU76/J2000 heliocentric ecliptic osculating elements (au, days, deg.):
  EPOCH=  2458376.5 ! 2018-Sep-15.00 (TDB)         Residual RMS= .12525        
   EC= .3382936082205208   QR= .9576766169446216   TP= 2458412.3293739939      
   OM= 161.903422202901    W=  234.5704247756858   IN= 9.466091569921099       
  Equivalent ICRF heliocentric cartesian coordinates (au, au/d):
   X= 1.017940821946709E+00  Y=-7.278189102440286E-02  Z=-7.249995171787897E-02
  VX=-1.754817228708964E-03 VY= 1.862872143473751E-02 VZ= 4.887370356508847E-03
Asteroid physical parameters (km, seconds, rotational period in hours):        
   GM= n.a.                RAD= n.a.               ROTPER= n.a.                
   H= 24.3                 G= .150                 B-V= n.a.                   
                           ALBEDO= n.a.            STYP= n.a.                  
*******************************************************************************
 Date__(UT)__HR:MN     R.A._________(ICRF)_________DEC
******************************************************
$$SOE
 2018-Sep-30 02:57     07 19 18.837831 -21 45 09.70637
 2018-Sep-30 02:58     07 19 19.096482 -21 45 10.00329
 2018-Sep-30 02:59     07 19 19.355051 -21 45 10.30045
 2018-Sep-30 03:00     07 19 19.613537 -21 45 10.59785
 2018-Sep-30 03:01     07 19 19.871941 -21 45 10.89549
 2018-Sep-30 03:02     07 19 20.130262 -21 45 11.19338
 2018-Sep-30 03:03     07 19 20.388500 -21 45 11.49150
 2018-Sep-30 03:04     07 19 20.646654 -21 45 11.78986
 2018-Sep-30 03:05     07 19 20.904725 -21 45 12.08845
 2018-Sep-30 03:06     07 19 21.162712 -21 45 12.38728
 2018-Sep-30 03:07     07 19 21.420615 -21 45 12.68634
 2018-Sep-30 03:08     07 19 21.678433 -21 45 12.98563
 2018-Sep-30 03:09     07 19 21.936167 -21 45 13.28514
 2018-Sep-30 03:10  m  07 19 22.193817 -21 45 13.58489
 2018-Sep-30 03:11  m  07 19 22.451381 -21 45 13.88486
 2018-Sep-30 03:12  m  07 19 22.708861 -21 45 14.18505
 2018-Sep-30 03:13  m  07 19 22.966255 -21 45 14.48546
 2018-Sep-30 03:14  m  07 19 23.223563 -21 45 14.78609
 2018-Sep-30 03:15  m  07 19 23.480786 -21 45 15.08695
 2018-Sep-30 03:16  m  07 19 23.737923 -21 45 15.38801
 2018-Sep-30 03:17  m  07 19 23.994974 -21 45 15.68930
 2018-Sep-30 03:18  m  07 19 24.251938 -21 45 15.99080
 2018-Sep-30 03:19  m  07 19 24.508816 -21 45 16.29250
 2018-Sep-30 03:20  m  07 19 24.765607 -21 45 16.59442
 2018-Sep-30 03:21  m  07 19 25.022311 -21 45 16.89655
 2018-Sep-30 03:22  m  07 19 25.278927 -21 45 17.19888
 2018-Sep-30 03:23  m  07 19 25.535457 -21 45 17.50142
 2018-Sep-30 03:24  m  07 19 25.791899 -21 45 17.80416
 2018-Sep-30 03:25  m  07 19 26.048253 -21 45 18.10710
 2018-Sep-30 03:26  m  07 19 26.304519 -21 45 18.41025
 2018-Sep-30 03:27  m  07 19 26.560697 -21 45 18.71359
 2018-Sep-30 03:28  m  07 19 26.816787 -21 45 19.01712
 2018-Sep-30 03:29  m  07 19 27.072788 -21 45 19.32085
 2018-Sep-30 03:30  m  07 19 27.328701 -21 45 19.62478
 2018-Sep-30 03:31  m  07 19 27.584524 -21 45 19.92889
 2018-Sep-30 03:32  m  07 19 27.840259 -21 45 20.23319
 2018-Sep-30 03:33  m  07 19 28.095904 -21 45 20.53768
 2018-Sep-30 03:34  m  07 19 28.351460 -21 45 20.84236
 2018-Sep-30 03:35  m  07 19 28.606926 -21 45 21.14722
 2018-Sep-30 03:36  m  07 19 28.862303 -21 45 21.45226
 2018-Sep-30 03:37  m  07 19 29.117589 -21 45 21.75749
 2018-Sep-30 03:38  m  07 19 29.372786 -21 45 22.06289
 2018-Sep-30 03:39  m  07 19 29.627892 -21 45 22.36847
 2018-Sep-30 03:40  m  07 19 29.882907 -21 45 22.67422
 2018-Sep-30 03:41  m  07 19 30.137832 -21 45 22.98014
 2018-Sep-30 03:42  m  07 19 30.392666 -21 45 23.28624
 2018-Sep-30 03:43  m  07 19 30.647409 -21 45 23.59251
 2018-Sep-30 03:44  m  07 19 30.902061 -21 45 23.89895
 2018-Sep-30 03:45  m  07 19 31.156621 -21 45 24.20555
 2018-Sep-30 03:46  m  07 19 31.411091 -21 45 24.51231
 2018-Sep-30 03:47  m  07 19 31.665468 -21 45 24.81924
 2018-Sep-30 03:48  m  07 19 31.919754 -21 45 25.12633
 2018-Sep-30 03:49  m  07 19 32.173947 -21 45 25.43358
 2018-Sep-30 03:50  m  07 19 32.428049 -21 45 25.74098
 2018-Sep-30 03:51  m  07 19 32.682058 -21 45 26.04854
 2018-Sep-30 03:52  m  07 19 32.935975 -21 45 26.35625
 2018-Sep-30 03:53  m  07 19 33.189799 -21 45 26.66412
 2018-Sep-30 03:54  m  07 19 33.443530 -21 45 26.97213
 2018-Sep-30 03:55  m  07 19 33.697169 -21 45 27.28029
 2018-Sep-30 03:56  m  07 19 33.950715 -21 45 27.58860
 2018-Sep-30 03:57  m  07 19 34.204167 -21 45 27.89705
 2018-Sep-30 03:58  m  07 19 34.457526 -21 45 28.20565
 2018-Sep-30 03:59  m  07 19 34.710792 -21 45 28.51438
 2018-Sep-30 04:00  m  07 19 34.963964 -21 45 28.82325
 2018-Sep-30 04:01  m  07 19 35.217042 -21 45 29.13226
 2018-Sep-30 04:02  m  07 19 35.470026 -21 45 29.44141
 2018-Sep-30 04:03  m  07 19 35.722917 -21 45 29.75069
 2018-Sep-30 04:04  m  07 19 35.975713 -21 45 30.06010
 2018-Sep-30 04:05  m  07 19 36.228415 -21 45 30.36963
 2018-Sep-30 04:06  m  07 19 36.481022 -21 45 30.67930
 2018-Sep-30 04:07  m  07 19 36.733535 -21 45 30.98909
 2018-Sep-30 04:08  m  07 19 36.985953 -21 45 31.29900
 2018-Sep-30 04:09  m  07 19 37.238277 -21 45 31.60904
 2018-Sep-30 04:10  m  07 19 37.490505 -21 45 31.91920
 2018-Sep-30 04:11  m  07 19 37.742639 -21 45 32.22947
 2018-Sep-30 04:12  m  07 19 37.994677 -21 45 32.53986
 2018-Sep-30 04:13  m  07 19 38.246620 -21 45 32.85036
 2018-Sep-30 04:14  m  07 19 38.498468 -21 45 33.16098
 2018-Sep-30 04:15  m  07 19 38.750220 -21 45 33.47171
 2018-Sep-30 04:16  m  07 19 39.001876 -21 45 33.78254
 2018-Sep-30 04:17  m  07 19 39.253437 -21 45 34.09348
 2018-Sep-30 04:18  m  07 19 39.504902 -21 45 34.40453
 2018-Sep-30 04:19  m  07 19 39.756271 -21 45 34.71568
 2018-Sep-30 04:20  m  07 19 40.007543 -21 45 35.02693
 2018-Sep-30 04:21  m  07 19 40.258720 -21 45 35.33828
 2018-Sep-30 04:22  m  07 19 40.509800 -21 45 35.64972
 2018-Sep-30 04:23  r  07 19 40.760784 -21 45 35.96126
 2018-Sep-30 04:24  m  07 19 41.011671 -21 45 36.27290
 2018-Sep-30 04:25  m  07 19 41.262462 -21 45 36.58462
 2018-Sep-30 04:26  m  07 19 41.513156 -21 45 36.89644
 2018-Sep-30 04:27  m  07 19 41.763753 -21 45 37.20834
 2018-Sep-30 04:28  m  07 19 42.014253 -21 45 37.52033
 2018-Sep-30 04:29  m  07 19 42.264657 -21 45 37.83240
 2018-Sep-30 04:30  m  07 19 42.514963 -21 45 38.14455
 2018-Sep-30 04:31  m  07 19 42.765172 -21 45 38.45678
 2018-Sep-30 04:32  m  07 19 43.015284 -21 45 38.76909
 2018-Sep-30 04:33  m  07 19 43.265298 -21 45 39.08148
 2018-Sep-30 04:34  m  07 19 43.515215 -21 45 39.39394
 2018-Sep-30 04:35  m  07 19 43.765034 -21 45 39.70647
 2018-Sep-30 04:36  m  07 19 44.014756 -21 45 40.01907
 2018-Sep-30 04:37  m  07 19 44.264380 -21 45 40.33174
 2018-Sep-30 04:38  m  07 19 44.513907 -21 45 40.64448
 2018-Sep-30 04:39  m  07 19 44.763335 -21 45 40.95728
 2018-Sep-30 04:40  m  07 19 45.012665 -21 45 41.27014
 2018-Sep-30 04:41  m  07 19 45.261898 -21 45 41.58306
 2018-Sep-30 04:42  m  07 19 45.511032 -21 45 41.89604
 2018-Sep-30 04:43  m  07 19 45.760069 -21 45 42.20907
 2018-Sep-30 04:44  m  07 19 46.009007 -21 45 42.52216
 2018-Sep-30 04:45  m  07 19 46.257847 -21 45 42.83531
 2018-Sep-30 04:46  m  07 19 46.506588 -21 45 43.14850
 2018-Sep-30 04:47  m  07 19 46.755231 -21 45 43.46174
 2018-Sep-30 04:48  m  07 19 47.003776 -21 45 43.77503
 2018-Sep-30 04:49  m  07 19 47.252222 -21 45 44.08836
 2018-Sep-30 04:50  m  07 19 47.500569 -21 45 44.40173
 2018-Sep-30 04:51  m  07 19 47.748818 -21 45 44.71515
 2018-Sep-30 04:52  m  07 19 47.996968 -21 45 45.02860
 2018-Sep-30 04:53  m  07 19 48.245019 -21 45 45.34209
 2018-Sep-30 04:54  m  07 19 48.492972 -21 45 45.65562
 2018-Sep-30 04:55  m  07 19 48.740825 -21 45 45.96917
 2018-Sep-30 04:56  m  07 19 48.988580 -21 45 46.28276
 2018-Sep-30 04:57  m  07 19 49.236236 -21 45 46.59638
 2018-Sep-30 04:58  m  07 19 49.483792 -21 45 46.91002
 2018-Sep-30 04:59  m  07 19 49.731250 -21 45 47.22369
